FENGYUN 1C DEB          
1 31226U 99025BLG 17345.36807107  .00000140  00000-0  74010-4 0  9992
2 31226  98.6458  48.9629 0130978  93.8092 267.8073 14.22967596556126
